{
  "fetched_at": "2026-04-24T02:38:10.714437+00:00",
  "satellites": {
    "57166": {
      "name": "Meteor M2-3",
      "tle_line1": "1 57166U 23091A   26113.57485231 -.00000015  00000+0  12161-4 0  9999",
      "tle_line2": "2 57166  98.6127 169.6581 0003410 346.5450  13.5637 14.24041969146748"
    },
    "59051": {
      "name": "Meteor M2-4",
      "tle_line1": "1 59051U 24039A   26113.59792589  .00000005  00000+0  21875-4 0  9996",
      "tle_line2": "2 59051  98.6972  73.5952 0006600 337.0885  22.9998 14.22423480111507"
    },
    "38771": {
      "name": "MetOp-B",
      "tle_line1": "1 38771U 12049A   26113.49540029  .00000064  00000+0  49038-4 0  9995",
      "tle_line2": "2 38771  98.6554 166.0731 0003313 129.9544 230.1925 14.21432230705492"
    },
    "43689": {
      "name": "MetOp-C",
      "tle_line1": "1 43689U 18087A   26113.51757684  .00000061  00000+0  47679-4 0  9993",
      "tle_line2": "2 43689  98.6684 174.1099 0000982  42.7740 317.3514 14.21510840387061"
    }
  }
}